#aV2010  3 29  0  0   .00000000      96 DD+AD WGS84 FIT  NGA
## 1577  86400.00000000   900.00000000 55284  .0000000000000
+   30     1  2  3  4  5  6  7  8 10 11 12 13 14 15 16 17 18
+         19 20 21 22 23 24 26 27 28 29 30 31 32  0  0  0  0
+          0  0  0  0  0  0  0  0  0  0  0  0  0  0  0  0  0
+          0  0  0  0  0  0  0  0  0  0  0  0  0  0  0  0  0
+          0  0  0  0  0  0  0  0  0  0  0  0  0  0  0  0  0
++         0  0  0  0  0  0  0  0  0  0  0  0  0  0  0  0  0
++         0  0  0  0  0  0  0  0  0  0  0  0  0  0  0  0  0
++         0  0  0  0  0  0  0  0  0  0  0  0  0  0  0  0  0
++         0  0  0  0  0  0  0  0  0  0  0  0  0  0  0  0  0
++         0  0  0  0  0  0  0  0  0  0  0  0  0  0  0  0  0
%c cc cc ccc ccc cccc cccc cccc cccc ccccc ccccc ccccc ccccc
%c cc cc ccc ccc cccc cccc cccc cccc ccccc ccccc ccccc ccccc
%f  0.0000000  0.000000000  0.00000000000  0.000000000000000
%f  0.0000000  0.000000000  0.00000000000  0.000000000000000
%i    0    0    0    0      0      0      0      0         0
%i    0    0    0    0      0      0      0      0         0
/*      NGA, ST. LOUIS,MO.                                  
/*   EPHEMERIS COMPUTED FROM  3 DAYS OF DATA                
/* CCCCCCCCCCCCCCCCCCCCCCCCCCCCCCCCCCCCCCCCCCCCCCCCCCCCCCCCC
/* CCCCCCCCCCCCCCCCCCCCCCCCCCCCCCCCCCCCCCCCCCCCCCCCCCCCCCCCC
*  2010  3 29  2 15   .00000000                                                 
P  1  21352.197281  12554.811591   9697.018901   -103.516843                    
V  1   6885.336115  10592.904887 -28412.507354      -.040141                    
P  2 -18387.937990  14119.271558  12502.273666    241.041689                    
V  2 -16436.963897    959.257164 -25619.537880       .038210                    
P  3  10031.489483 -22915.145943   8038.012703    534.544876                    
V  3   2064.829781  11347.401657  28856.837292       .051110                    
P  4 -26182.190002   5469.861672   -974.089747     47.499207                    
V  4    270.459489  -3317.230902 -31013.592959       .087074                    
P  5  -7216.863134  14091.306751  21293.079661     -2.490068                    
V  5 -19152.761235 -19193.274576   6287.970659       .007745                    
P  6  13537.118995 -19797.580539  11451.516042    679.153523                    
V  6   -361.006956  14704.394811  26397.240557      -.081831                    
P  7 -17925.828224  -8279.687038  17832.186515      1.108278                    
V  7  21650.756644  -6527.517886  18568.817364      -.004194                    
P  8 -25585.316112  -1013.020968   8005.128482      4.478701                    
V  8   9667.539946  -2909.257977  29958.821274       .001950                    
P 10 -14223.933706   6745.879617  21244.369610    -38.966734                    
V 10 -18104.691632 -20561.128596  -5202.035174      -.009718                    
P 11  -4027.523377 -16627.991441 -20536.073047    -53.296296                    
V 11  23527.737533 -10833.607070   4580.304603      -.021897                    
P 12   9288.632101  21921.760194 -11872.647975   -133.147228                    
V 12 -11778.715706  -9655.042698 -26770.363340       .045387                    
P 13  -7523.954128 -16212.828106  19502.814173    305.754955                    
V 13   9547.263049 -23109.249619 -15435.345763      -.002614                    
P 14  15779.495636  -3167.760566 -20968.138794     27.099752                    
V 14  -8176.375291  25630.368597 -10079.471748       .048876                    
P 15  -6568.774967  25656.571944   -824.254730   -293.163767                    
V 15  -3300.906642    188.272763  31661.380849       .042995                    
P 16  12671.514862  -8291.119431  21883.917898    -55.917707                    
V 16  18402.851283  20598.488081  -2593.144973      -.038910                    
P 17 -16205.115661   3190.091915 -20656.644072    140.422517                    
V 17   7177.804282 -25533.712573  -9735.286980       .028370                    
P 18  19808.459897  17467.768078  -4067.017636     58.265493                    
V 18   1280.818613   6180.261712  30431.458419       .025339                    
P 19   7735.008448 -25109.265996  -2514.666026    -24.442303                    
V 19   4111.340202  -1920.696626  31674.245042      -.024426                    
P 20 -12084.219175 -21776.079373  -9448.083333     58.691014                    
V 20  10586.848248   6123.641734 -28009.382324      -.006648                    
P 21  21725.460078   6289.679357  14724.508505    -49.795677                    
V 21 -17063.167159   6076.067748  22450.552356      -.025148                    
P 22  20949.752356   7470.579469 -14419.420388    175.780107                    
V 22  10432.273636  15647.871811  22925.853619      -.011269                    
P 23  -2154.652343 -23006.181318  12787.794337    375.983733                    
V 23   7010.052794 -14992.824713 -26034.117902      -.011485                    
P 24  20831.578020   6945.807557  14873.451476    274.493923                    
V 24 -18082.141327   5835.178154  22976.114665       .032355                    
P 26   6930.901534  17428.733813 -19138.433705    -33.031543                    
V 26  -9061.166570  21478.512805  17189.026361      -.042281                    
P 27  -5940.083168  15714.996727 -19851.214031    138.218005                    
V 27 -25948.141579   6559.069640  12661.498147       .033476                    
P 28 -20797.413556 -10494.238069 -12550.998300    -19.620808                    
V 28  -9478.130310 -13750.965501  25932.864442       .007663                    
P 29   7583.726623  17813.521980  18295.580171    108.437981                    
V 29  -8644.151461  21391.980832 -17297.561623       .028557                    
P 30  17350.580840  19948.839516  -3231.625249    228.771744                    
V 30  -4620.131291   -438.489834 -31238.854639       .034237                    
P 31  25575.587349  -7337.879641   1816.670508    -45.077510                    
V 31   2477.072253   1628.525469 -31875.721966       .019127                    
P 32  -2819.698935 -21158.685136 -15666.214062     63.892003                    
V 32  14174.674428  14790.174293 -21716.564711      -.085602                    
EOF
